     2.100          NAVIGATION                              RINEX VERSION / TYPE
fic2rin                                 08/23/2017 00:18:56 PGM / RUN BY / DATE
                                                            END OF HEADER
12 17  8 22 18  0  0.0  .375197734684D-03 -.113686837722D-11  .000000000000D+00
     .290000000000D+02  .323125000000D+02  .347657338466D-08  .109686906985D+01
     .157020986080D-05  .655399390962D-02  .137593597174D-04  .515374091721D+04
     .237600000000D+06 -.856816768646D-07  .222719209766D+00  .111758708954D-07
     .989075520886D+00  .126718750000D+03  .914592386913D+00 -.757424406910D-08
    -.989326923723D-10  .100000000000D+01  .196300000000D+04  .000000000000D+00
     .240000000000D+01  .000000000000D+00 -.125728547573D-07  .290000000000D+02
     .230406000000D+06  .400000000000D+01
13 17  8 22 18  0  0.0 -.900924205780D-04 -.682121026330D-12  .000000000000D+00
     .640000000000D+02  .493125000000D+02  .457054752451D-08  .289330935854D+01
     .268779695034D-05  .350116903428D-02  .617094337940D-05  .515368829155D+04
     .237600000000D+06 -.372529029846D-08 -.181441010583D+01  .745058059692D-08
     .968909767164D+00  .265156250000D+03  .177619938926D+01 -.806283584948D-08
     .408588447920D-09  .100000000000D+01  .196300000000D+04  .000000000000D+00
     .240000000000D+01  .000000000000D+00 -.111758708954D-07  .640000000000D+02
     .230406000000D+06  .400000000000D+01
14 17  8 22 18  0  0.0 -.815642997622D-04 -.113686837722D-11  .000000000000D+00
     .670000000000D+02  .554375000000D+02  .469126683867D-08 -.206960038719D+01
     .289268791676D-05  .935739709530D-02  .609457492828D-05  .515368094826D+04
     .237600000000D+06  .143423676491D-06 -.185447176340D+01 -.596046447754D-07
     .961462528134D+00  .264750000000D+03 -.194898379950D+01 -.808247952486D-08
     .415731602604D-09  .100000000000D+01  .196300000000D+04  .000000000000D+00
     .240000000000D+01  .000000000000D+00 -.977888703346D-08  .670000000000D+02
     .230406000000D+06  .400000000000D+01
15 17  8 22 18  0  0.0 -.354988034815D-03 -.454747350886D-12  .000000000000D+00
     .270000000000D+02  .600625000000D+02  .540165357198D-08 -.260501458986D+01
     .308640301228D-05  .947152276058D-02  .744871795177D-05  .515359430313D+04
     .237600000000D+06  .372529029846D-07 -.200580808884D+01 -.156462192535D-06
     .928670796603D+00  .218750000000D+03  .592405263211D+00 -.841927926820D-08
     .567880797372D-09  .100000000000D+01  .196300000000D+04  .000000000000D+00
     .240000000000D+01  .000000000000D+00 -.107102096081D-07  .270000000000D+02
     .230406000000D+06  .400000000000D+01
16 17  8 22 18  0  0.0  .368203036487D-04  .113686837722D-12  .000000000000D+00
     .410000000000D+02  .435312500000D+02  .348193075068D-08 -.859285379154D+00
     .238791108131D-05  .927686796058D-02  .123493373394D-04  .515375620842D+04
     .237600000000D+06  .208616256714D-06  .241577151298D+00  .279396772385D-07
     .989537567469D+00  .153250000000D+03  .461896253776D+00 -.755817197106D-08
     .207151485834D-10  .100000000000D+01  .196300000000D+04  .000000000000D+00
     .240000000000D+01  .000000000000D+00 -.107102096081D-07  .410000000000D+02
     .230406000000D+06  .400000000000D+01
17 17  8 22 18  0  0.0 -.161842908710D-03  .238742359215D-11  .000000000000D+00
     .460000000000D+02  .978437500000D+02  .443232748137D-08 -.175307853517D+01
     .532902777195D-05  .117606843123D-01  .403262674809D-05  .515367208099D+04
     .237600000000D+06  .229105353355D-06  .125826251966D+01  .115483999252D-06
     .980428475444D+00  .309718750000D+03 -.184572041337D+01 -.814176770873D-08
     .543594071446D-09  .100000000000D+01  .196300000000D+04  .000000000000D+00
     .240000000000D+01  .000000000000D+00 -.111758708954D-07  .460000000000D+02
     .230406000000D+06  .400000000000D+01
18 17  8 22 18  0  0.0  .627716071904D-03  .102318153949D-11  .000000000000D+00
     .560000000000D+02 -.582812500000D+02  .525379027002D-08 -.290263748159D+00
    -.299699604511D-05  .181215294870D-01  .120848417282D-04  .515363158417D+04
     .237600000000D+06 -.188127160072D-06 -.302633626212D+01  .141561031342D-06
     .926385617622D+00  .132531250000D+03 -.178555845595D+01 -.867214694402D-08
    -.532165023952D-10  .100000000000D+01  .196300000000D+04  .000000000000D+00
     .240000000000D+01  .000000000000D+00 -.111758708954D-07  .560000000000D+02
     .230406000000D+06  .400000000000D+01
19 17  8 22 18  0  0.0 -.489864964038D-03  .181898940355D-11  .000000000000D+00
     .860000000000D+02  .915000000000D+02  .460876340207D-08  .124628111673D+01
     .473670661449D-05  .101393799996D-01  .436604022980D-05  .515367187309D+04
     .237600000000D+06 -.171363353729D-06  .130591412393D+01  .242143869400D-07
     .977726418938D+00  .306718750000D+03  .105418644531D+01 -.844285167866D-08
     .420017495415D-09  .100000000000D+01  .196300000000D+04  .000000000000D+00
     .240000000000D+01  .000000000000D+00 -.153668224812D-07  .860000000000D+02
     .230406000000D+06  .400000000000D+01
20 17  8 22 18  0  0.0  .484124757349D-03  .125055521494D-11  .000000000000D+00
     .450000000000D+02 -.808125000000D+02  .495627787744D-08 -.270641537261D+01
    -.410154461861D-05  .446229579393D-02  .124480575323D-04  .515373739433D+04
     .237600000000D+06  .558793544769D-07 -.307752395881D+01  .428408384323D-07
     .927773784976D+00  .120656250000D+03  .164435770827D+01 -.815319675623D-08
    -.104647216119D-09  .100000000000D+01  .196300000000D+04  .000000000000D+00
     .240000000000D+01  .000000000000D+00 -.838190317154D-08  .450000000000D+02
     .230406000000D+06  .400000000000D+01
21 17  8 22 18  0  0.0 -.485225114971D-03  .284217094304D-11  .000000000000D+00
     .190000000000D+02 -.739062500000D+02  .568059376239D-08  .608757420641D+00
    -.394694507122D-05  .239641198423D-01  .334158539772D-05  .515361752892D+04
     .237600000000D+06 -.266358256340D-06  .221705024692D+01 -.838190317154D-07
     .940626218115D+00  .314062500000D+03 -.164761738965D+01 -.927681498801D-08
    -.400373820034D-09  .100000000000D+01  .196300000000D+04  .000000000000D+00
     .240000000000D+01  .000000000000D+00 -.977888703346D-08  .190000000000D+02
     .230406000000D+06  .400000000000D+01
22 17  8 22 18  0  0.0 -.967318192124D-04 -.126192389871D-10  .000000000000D+00
     .400000000000D+02 -.437812500000D+02  .505235330794D-08 -.238053879145D+01
    -.234320759773D-05  .734295882285D-02  .124797224998D-04  .515375673485D+04
     .237600000000D+06  .856816768646D-07 -.302663842784D+01  .540167093277D-07
     .924462127581D+00  .115843750000D+03 -.168507447665D+01 -.809105131048D-08
    -.100004165575D-10  .100000000000D+01  .196300000000D+04  .000000000000D+00
     .240000000000D+01  .000000000000D+00 -.176951289177D-07  .400000000000D+02
     .230406000000D+06  .400000000000D+01
23 17  8 22 18  0  0.0 -.216582324356D-03 -.454747350886D-12  .000000000000D+00
     .290000000000D+02  .660312500000D+02  .510556981033D-08 -.313122223945D+01
     .322423875332D-05  .118773847353D-01  .625289976597D-05  .515369228554D+04
     .237600000000D+06 -.186264514923D-08 -.194100599373D+01 -.115483999252D-06
     .943873160403D+00  .248062500000D+03 -.242709256640D+01 -.825105797540D-08
     .473948313278D-09  .100000000000D+01  .196300000000D+04  .000000000000D+00
     .240000000000D+01  .000000000000D+00 -.204890966415D-07  .290000000000D+02
     .230406000000D+06  .400000000000D+01
24 17  8 22 18  0  0.0 -.390741042793D-04 -.341060513165D-12  .000000000000D+00
     .220000000000D+02 -.462500000000D+02  .517450125303D-08  .261455927306D+01
    -.240094959736D-05  .581174844410D-02  .510551035404D-05  .515367200470D+04
     .237600000000D+06 -.353902578354D-07 -.918014835483D+00 -.558793544769D-07
     .944195610954D+00  .272468750000D+03  .470879319797D+00 -.847785313661D-08
    -.395373611755D-09  .100000000000D+01  .196300000000D+04  .000000000000D+00
     .240000000000D+01  .000000000000D+00  .279396772385D-08  .220000000000D+02
     .230406000000D+06  .400000000000D+01
26 17  8 22 18  0  0.0 -.445829704404D-03  .932232069317D-11  .000000000000D+00
     .190000000000D+02  .262500000000D+02  .415553023737D-08  .559090000114D-01
     .146217644215D-05  .183837919030D-02  .124219805002D-04  .515376301575D+04
     .237600000000D+06  .931322574615D-08  .149466249458D+00 -.149011611938D-07
     .958637529455D+00  .139187500000D+03  .322433610768D-01 -.788675708652D-08
    -.828605943335D-10  .100000000000D+01  .196300000000D+04  .000000000000D+00
     .240000000000D+01  .000000000000D+00  .745058059692D-08  .190000000000D+02
     .230406000000D+06  .400000000000D+01
27 17  8 22 18  0  0.0  .314236618578D-03  .568434188608D-11  .000000000000D+00
     .980000000000D+02  .101000000000D+03  .448054377549D-08 -.174121797512D+01
     .506825745106D-05  .490169553086D-02  .462122261524D-05  .515366797066D+04
     .237600000000D+06  .447034835815D-07  .120576754328D+01 -.391155481339D-07
     .975318433836D+00  .297781250000D+03  .397665517416D+00 -.821855662159D-08
     .527521973408D-09  .100000000000D+01  .196300000000D+04  .000000000000D+00
     .340000000000D+01  .000000000000D+00  .139698386192D-08  .980000000000D+02
     .230406000000D+06  .400000000000D+01
28 17  8 22 18  0  0.0  .639517791569D-03  .318323145621D-11  .000000000000D+00
     .570000000000D+02  .666875000000D+02  .356943439556D-08 -.852762597557D+00
     .351108610630D-05  .197470119456D-01  .136420130730D-04  .515366579247D+04
     .237600000000D+06 -.279396772385D-06  .246065331300D+00  .178813934326D-06
     .988346879426D+00  .139718750000D+03 -.156600334927D+01 -.783496921506D-08
     .892894335490D-10  .100000000000D+01  .196300000000D+04  .000000000000D+00
     .340000000000D+01  .000000000000D+00 -.111758708954D-07  .570000000000D+02
     .230406000000D+06  .400000000000D+01
